#dP2021  2 10  0  0  0.00000000      96 __u+U ITR00 FIT  IAC
## 2144 259200.00000000   900.00000000 59255 0.0000000000000
+  116   C06C07C08C09C10C11C12C13C14C16C19C20C21C22C23C24C25
+        C26C27C28C29C30C32C33C34C35C36C37C38C39C40C41C42C43
+        C44C45C46E01E02E03E04E05E07E08E09E11E12E13E14E15E18
+        E19E21E24E25E26E27E30E31E33E36G01G02G03G04G05G06G07
+        G08G09G10G11G12G13G14G15G16G17G18G19G20G21G22G23G24
+        G25G26G27G28G29G30G31G32J01J02J03R01R02R03R04R05R07
+        R08R11R12R13R14R15R16R17R18R19R20R21R22R24  0  0  0
++         7 10  7  8  8  6  6  7 11  8  7  8  7  7  8  7  7
++         6  6  5  8  7  6  6  7  7  6  6  8  7  6  7  7  7
++         8  7  6  6  9  7  8  7  7  7  7  7  5  6  5  7  6
++         6  6  6  6  6  6  6  6  5  6  5  7  5  5  7  7  6
++         6  6  6  7  7  5  5  6  5  7  7  5  6  7  6  7  6
++         7  6  6  6  6  7  7  5  9  7  8  7  6  6  7  6  7
++         6  7  6  5  7  5  7  8  7  6  6  7  7  6  0  0  0
%c M  cc GPS ccc cccc cccc cccc cccc ccccc ccccc ccccc ccccc
%c cc cc ccc ccc cccc cccc cccc cccc ccccc ccccc ccccc ccccc
%f  0.0000000  0.000000000  0.00000000000  0.000000000000000
%f  0.0000000  0.000000000  0.00000000000  0.000000000000000
%i    0    0    0    0      0      0      0      0         0
%i    0    0    0    0      0      0      0      0         0
/* INFORMATION & ANALYSIS CENTER (IAC)      ULTRA-RAPID DATA
/* S/V CLOCKS ARE ALIGNED TO GNSS TIME                      
/* G:C1WC2W R:C1PC2P E:C1XC5X C:C2IC6I J:C1CC2S             
/* PCV:IGS14_2134 OL/AL:FES2004  NONE     YN ORB:CoN CLK:CoN
*  2021 02 10 22  0  0.00000000
PC06  -6394.432947  34078.124941  24744.017474     80.485685
PC07 -18738.433949  22823.399606 -29982.804764   -313.960916
PC08 -22654.186094  34796.339584   6153.184542   -916.333200
PC09   3498.756505  40350.041761  12746.623617    742.156712
PC10  -3553.340546  26119.318564 -32707.556381    -88.621578
PC11   9533.859596 -17587.575737  19538.858529   -930.923786
PC12  15844.526285   2079.567603  22915.167296    789.373686
PC13 -10991.579335  35597.779383  19593.692513    136.107160
PC14  16761.828564  -9493.037723 -20147.087113    106.485275
PC16  -4541.968256  34624.705311  23870.558121   -691.107938
PC19  -6860.527791  14451.915105  22891.612907    723.300677
PC20 -23047.714119   3948.739787  15265.169698   -914.380369
PC21  26171.778985   9475.956314   1886.756300   -832.371033
PC22  13740.406386  16897.498516  17437.358870   -875.088915
PC23  -3068.034616 -17770.644345  21295.965372   -876.423540
PC24  23253.363829 -13038.831513  -8316.411535   -757.887413
PC25  13393.628553 -22441.116616   9811.980871   -928.953221
PC26  18955.738332   2042.718366 -20400.351997    950.314367
PC27 -16021.882965 -12705.252255 -18994.505076    481.234436
PC28  -8402.627090 -26279.073159  -4194.097932   -111.034943
PC29  -3180.010631  24509.194345 -12968.733645    350.698745
PC30 -14093.266901   8254.987601 -22630.075700    443.156641
PC32 -26260.348817  -9263.343466  -1856.056477 999999.999999
PC33   6854.385279 -14478.318929 -22843.623149   -960.838367
PC34  13907.015267  -8915.466985  22483.167533   -742.883228
PC35   9154.835087  26091.868773   3909.770430   -423.910078
PC36 -14161.431601  22070.159745  -9517.172902   -758.323712
PC37 -18364.761946  -3294.251134  20755.231235   -864.122979
PC38 -20566.083209  35900.560463   7813.907253    129.299131
PC39  -1645.889682  35100.707842  23406.288095     28.338430
PC40  -8954.246447  20871.548184 -35525.218277 999999.999999
PC41 -13564.873733 -16896.893308 -17531.494484   -930.354272
PC42  23442.451602  -3485.771764 -14682.608359   -859.196613
PC43   3688.538509 -24246.292395  13287.327638   -592.170302
PC44  16506.769720  12413.865004  18779.778915     32.238461
PC45   3128.077056  17622.448054 -21405.565407    358.846059
PC46 -23061.408192  13727.207876   7568.900581    411.189543
PE01 -26846.547178  11255.702642  -5324.188565  -1043.477200
PE02  26822.785752 -11316.435894   5419.676804 999999.999999
PE03  17566.344123  -5756.074288 -23120.237556   -397.225139
PE04   -728.821722  20407.147885  21432.112512   -707.207050
PE05  24353.260895  12506.661917 -11257.405966   -305.597330
PE07 -16866.475166 -23285.521199  -7047.161631   -499.213901
PE08    231.464930 -20471.923554 -21382.765285   6048.849920
PE09  17111.169063  23126.017710   6943.921941   5769.602839
PE11   5478.752580  23843.809346  16675.956168   6339.723475
PE12  -7996.488928  28463.536456  -1641.963787   5362.420278
PE13  -5243.978197 -24066.267989 -16398.352276    411.853755
PE14 -11627.462167 -25237.289646   3234.030733  -1325.558625
PE15   7880.771052 -28482.156558   1639.750215    829.931023
PE18     13.035599  25098.839135 -14890.815898  -1449.009386
PE19 -18932.694736   3531.939185  22478.512286    200.650464
PE21 -26707.247079  -1284.524673  12682.379718   -647.760912
PE24  10353.995110  13938.994882 -23990.623421   -736.913421
PE25  26643.555172   1405.418069 -12829.815932   -526.175002
PE26 -15610.268475  -4808.591234 -24673.741778   2162.791978
PE27 -11050.049035 -13557.545866  23877.783494     32.528852
PE30  11907.146133 -17704.917862  20515.338781   3191.371417
PE31 -10975.391680  17773.378400 -20963.325754   -478.171827
PE33 -16335.377738  16155.129580 -18656.887205   -465.589839
PE36  15263.031311   5516.198437  24765.776561    442.327958
PG01  14214.819536 -21740.869730   4343.225340    763.741493
PG02 -16354.516582   3113.788165 -20041.581523   -575.531236
PG03  15590.039979 -12884.435478 -17240.885266    -79.642961
PG04   7522.514431 -15076.272807 -20513.744065   -179.329898
PG05 -26416.945986   3401.174728   1059.173304    -33.358444
PG06 -10252.265541 -11626.991463 -21494.660527     -3.173583
PG07   4343.923465 -24155.583201   9830.518557     54.211648
PG08  12642.343263  -8178.829595  21887.007475     -9.841461
PG09  -3450.865023 -22368.255205 -13941.230805   -321.684407
PG10  14539.059346  12042.493242  18897.934727    -58.739633
PG11  11352.410791 -18324.604268  15299.517339    -28.182236
PG12 -19736.340901   9948.370958 -14859.198851      0.651754
PG13 -16970.551136  -3161.541287  20084.004698     95.774363
PG14 -12267.380109 -13379.803158  19383.412798     95.880614
PG15 -12106.209643  10037.555407  21047.904025   -170.278183
PG16  26801.274361    921.575153   -366.928361   -278.225007
PG17 -14037.473209 -22494.127123  -1127.619883    391.984965
PG18  -2817.644842  23450.078902  12088.205508    346.660539
PG19 -16954.175107 -18163.034486  -9792.828374    -40.175692
PG20   1826.158664  15630.655448  21330.394699    524.756430
PG21  16630.011524 -16286.633542  13115.264087     94.502645
PG22  22184.173622 -10709.622733  -9507.229700   -681.744015
PG23   2474.086527  14973.813020  21775.110604    118.259106
PG24 -15335.537841  19214.008351   9290.494511      2.483467
PG25  -5277.482121  15231.036355 -21318.497845     77.922328
PG26  23829.044451   5352.418058 -10810.509888     43.045866
PG27  18538.653392   5655.013357  18166.357978    -73.816900
PG28 -14608.258773 -12967.127362  18471.504111    617.362821
PG29   1758.229672  22306.939885 -14319.132549   -292.587987
PG30  -5038.029693 -18809.650403  18011.469448   -382.798762
PG31  12569.402773   8968.736495 -21662.179806    -99.316411
PG32  16247.184606  20983.511704  -2365.630153     18.273360
PJ01 -27288.963409  21614.926786  28857.124426   -340.246791
PJ02 -36307.036556  19156.443274  -5139.064831      1.721527
PJ03 -19343.252938  26910.902613 -21408.576248     -0.620067
PR01 -22212.349416  -5014.668649  11508.660450     74.805247
PR02  -7314.772679   8378.121826  22991.530819    466.524116
PR03  10130.858938  15060.060172  17989.394404     30.631073
PR04  21678.763533  13126.052092   2963.935164     73.539015
PR05  21111.348668   4009.174483 -13754.507554     66.290481
PR07 -10665.393419 -15103.959945 -17513.872860    -42.400004
PR08 -21709.196847 -13064.835034  -2797.440149    -57.317866
PR11 -13550.555883  -3222.103274  21377.748497      3.511605
PR12 -22188.647426   9174.506947   8591.860227    203.966683
PR13 -17537.134002  16318.661612  -8776.492357    -50.555087
PR14  -2345.177049  13690.071675 -21390.119713     60.864352
PR15  13856.672051   3237.677077 -21157.196356    105.468605
PR16  22163.442917 -10207.808861  -7691.669911    -11.164174
PR17   2015.637442  25273.183729   2659.117050    398.977669
PR18   8382.177675  16437.401546  17661.985990     66.217588
PR19  10365.800518   -157.135455  23312.039754   -131.527522
PR20   6551.911450 -19709.847647  14787.944827   -433.097887
PR21  -2429.000977 -25118.386722  -3793.309852   -186.783815
PR22  -8575.126320 -15354.678623 -18438.504160    -97.209181
PR24  -6289.668690  20338.934761 -14022.529359     31.060180
EOF
